NORAD_CAT_ID,OBJECT_NAME,OBJECT_TYPE,EPOCH,MEAN_MOTION,ECCENTRICITY,INCLINATION,RA_OF_ASC_NODE,ARG_OF_PERICENTER,MEAN_ANOMALY,BSTAR,MEAN_MOTION_DOT,MEAN_MOTION_DDOT,TLE_LINE0,TLE_LINE1,TLE_LINE2,SEMIMAJOR_AXIS,PERIOD,APOGEE,PERIGEE,DECAYED
53438.0,STARLINK-4526,PAYLOAD,2023-11-07 02:03:28,15.08811528,0.0001339,53.2165,335.7431,75.5009,284.6131,-0.00060343,-9.871e-05,0.0,0 STARLINK-4526,1 53438U 22097BC  23311.08574341 -.00009871  00000-0 -60343-3 0  9991,2 53438  53.2165 335.7431 0001339  75.5009 284.6131 15.08811528 69442,6917.967,95.439,540.759,538.906,0.0
53438.0,STARLINK-4526,PAYLOAD,2023-11-07 11:35:48,15.0880676,0.0001267,53.2183,333.9585,89.0486,271.0651,-0.00041967,-6.954e-05,0.0,0 STARLINK-4526,1 53438U 22097BC  23311.48319508 -.00006954  00000-0 -41967-3 0  9997,2 53438  53.2183 333.9585 0001267  89.0486 271.0651 15.08806760 69990,6917.982,95.44,540.724,538.97,0.0
53438.0,STARLINK-4526,PAYLOAD,2023-11-08 01:54:17,15.08818616,0.0001087,53.2188,331.2826,92.2952,267.8165,0.00052718,8.107e-05,0.0,0 STARLINK-4526,1 53438U 22097BC  23312.07936446  .00008107  00000-0  52718-3 0  9995,2 53438  53.2188 331.2826 0001087  92.2952 267.8165 15.08818616 69590,6917.946,95.439,540.563,539.059,0.0
53438.0,STARLINK-4526,PAYLOAD,2023-11-08 06:40:26,15.08834397,0.0001131,53.2174,330.3907,79.1843,280.9277,0.0014046,0.00022133,0.0,0 STARLINK-4526,1 53438U 22097BC  23312.27808773  .00022133  00000-0  14046-2 0  9994,2 53438  53.2174 330.3907 0001131  79.1843 280.9277 15.08834397 69626,6917.898,95.438,540.545,538.98,0.0
53438.0,STARLINK-4526,PAYLOAD,2023-11-08 17:48:08,15.08862908,0.0001207,53.2176,328.3101,88.1179,271.9952,0.0014633,0.00023092,0.0,0 STARLINK-4526,1 53438U 22097BC  23312.74176321  .00023092  00000-0  14633-2 0  9990,2 53438  53.2176 328.3101 0001207  88.1179 271.9952 15.08862908 70189,6917.81,95.436,540.51,538.84,0.0
53438.0,STARLINK-4526,PAYLOAD,2023-11-09 06:31:12,15.08872499,0.0001364,53.2178,325.934,102.1587,257.9558,0.0010289,0.00016139,0.0,0 STARLINK-4526,1 53438U 22097BC  23313.27167536  .00016139  00000-0  10289-2 0  9994,2 53438  53.2178 325.9340 0001364 102.1587 257.9558 15.08872499 70264,6917.781,95.435,540.59,538.702,0.0
53438.0,STARLINK-4526,PAYLOAD,2023-11-09 17:38:54,15.08869431,0.0001322,53.2171,323.8529,97.4484,262.6659,0.0004592,7.034e-05,0.0,0 STARLINK-4526,1 53438U 22097BC  23313.73534800  .00007034  00000-0  45920-3 0  9992,2 53438  53.2171 323.8529 0001322  97.4484 262.6659 15.08869431 69848,6917.79,95.436,540.57,538.741,0.0
53438.0,STARLINK-4526,PAYLOAD,2023-11-10 00:00:26,15.08849554,0.0001302,53.2182,322.664,104.8898,255.2239,-0.00025393,-4.328e-05,0.0,0 STARLINK-4526,1 53438U 22097BC  23314.00030752 -.00004328  00000-0 -25393-3 0  9997,2 53438  53.2182 322.6640 0001302 104.8898 255.2239 15.08849554 69881,6917.851,95.437,540.617,538.815,0.0
53438.0,STARLINK-4526,PAYLOAD,2023-11-10 07:57:22,15.08853722,0.0001453,53.217,321.1749,96.1253,263.9905,0.00027071,4.025e-05,0.0,0 STARLINK-4526,1 53438U 22097BC  23314.33150589  .00004025  00000-0  27071-3 0  9991,2 53438  53.2170 321.1749 0001453  96.1253 263.9905 15.08853722 70427,6917.838,95.437,540.709,538.698,0.0
53438.0,STARLINK-4526,PAYLOAD,2023-11-10 17:29:40,15.08846249,0.0001443,53.2167,319.3908,97.6789,262.4367,0.00022588,3.309e-05,0.0,0 STARLINK-4526,1 53438U 22097BC  23314.72894668  .00003309  00000-0  22588-3 0  9999,2 53438  53.2167 319.3908 0001443  97.6789 262.4367 15.08846249 70486,6917.861,95.437,540.725,538.728,0.0
53438.0,STARLINK-4526,PAYLOAD,2023-11-11 09:23:32,15.08849733,0.0001513,53.2163,316.4168,97.3227,262.7937,0.0002309,3.39e-05,0.0,0 STARLINK-4526,1 53438U 22097BC  23315.39134514  .00003390  00000-0  23090-3 0  9999,2 53438  53.2163 316.4168 0001513  97.3227 262.7937 15.08849733 70094,6917.851,95.437,540.762,538.669,0.0
53438.0,STARLINK-4526,PAYLOAD,2023-11-11 22:06:37,15.08838005,0.000153,53.217,314.035,91.9092,268.2075,7.1825e-05,8.55e-06,0.0,0 STARLINK-4526,1 53438U 22097BC  23315.92126991  .00000855  00000-0  71825-4 0  9991,2 53438  53.2170 314.0350 0001530  91.9092 268.2075 15.08838005 70171,6917.886,95.438,540.81,538.693,0.0
53438.0,STARLINK-4526,PAYLOAD,2023-11-12 09:14:19,15.08841129,0.000154,53.217,311.9517,88.8647,271.2521,0.00012524,1.706e-05,0.0,0 STARLINK-4526,1 53438U 22097BC  23316.38495036  .00001706  00000-0  12524-3 0  9997,2 53438  53.2170 311.9517 0001540  88.8647 271.2521 15.08841129 70737,6917.877,95.437,540.807,538.677,0.0
53438.0,STARLINK-4526,PAYLOAD,2023-11-12 17:11:15,15.08845423,0.0001576,53.2173,310.4661,90.4115,269.7058,0.00010301,1.352e-05,0.0,0 STARLINK-4526,1 53438U 22097BC  23316.71614931  .00001352  00000-0  10301-3 0  9999,2 53438  53.2173 310.4661 0001576  90.4115 269.7058 15.08845423 70785,6917.864,95.437,540.819,538.639,0.0
53438.0,STARLINK-4526,PAYLOAD,2023-11-13 05:54:20,15.08854821,0.00016,53.2168,308.0862,95.7453,264.3722,0.00037389,5.67e-05,0.0,0 STARLINK-4526,1 53438U 22097BC  23317.24606609  .00005670  00000-0  37389-3 0  9993,2 53438  53.2168 308.0862 0001600  95.7453 264.3722 15.08854821 70372,6917.835,95.437,540.807,538.593,0.0
53438.0,STARLINK-4526,PAYLOAD,2023-11-13 17:02:01,15.08852831,0.0001473,53.218,306.0062,90.6612,269.4549,0.00033256,5.011e-05,0.0,0 STARLINK-4526,1 53438U 22097BC  23317.70974519  .00005011  00000-0  33256-3 0  9990,2 53438  53.2180 306.0062 0001473  90.6612 269.4549 15.08852831 70939,6917.841,95.437,540.725,538.687,0.0
53438.0,STARLINK-4526,PAYLOAD,2023-11-14 04:09:44,15.08848432,0.0001814,53.2171,303.9235,107.3874,252.7316,0.00024453,3.607e-05,0.0,0 STARLINK-4526,1 53438U 22097BC  23318.17342725  .00003607  00000-0  24453-3 0  9998,2 53438  53.2171 303.9235 0001814 107.3874 252.7316 15.08848432 70515,6917.855,95.437,540.975,538.465,0.0
53438.0,STARLINK-4526,PAYLOAD,2023-11-14 08:55:53,15.08847803,0.0001765,53.2173,303.0319,101.6181,258.501,0.00019711,2.851e-05,0.0,0 STARLINK-4526,1 53438U 22097BC  23318.37214666  .00002851  00000-0  19711-3 0  9993,2 53438  53.2173 303.0319 0001765 101.6181 258.5010 15.08847803 71038,6917.857,95.437,540.943,538.501,0.0
53438.0,STARLINK-4526,PAYLOAD,2023-11-15 04:00:31,15.08840216,0.0001736,53.2184,299.4631,102.7474,257.3713,5.9927e-05,6.66e-06,0.0,0 STARLINK-4526,1 53438U 22097BC  23319.16703098  .00000666  00000-0  59927-4 0  9999,2 53438  53.2184 299.4631 0001736 102.7474 257.3713 15.08840216 70666,6917.88,95.438,540.946,538.544,0.0
53438.0,STARLINK-4526,PAYLOAD,2023-11-15 08:46:40,15.08840288,0.0001704,53.2184,298.5713,100.4322,259.6862,5.8913e-05,6.5e-06,0.0,0 STARLINK-4526,1 53438U 22097BC  23319.36575139  .00000650  00000-0  58913-4 0  9991,2 53438  53.2184 298.5713 0001704 100.4322 259.6862 15.08840288 71186,6917.88,95.438,540.923,538.566,0.0
53438.0,STARLINK-4526,PAYLOAD,2023-11-16 03:51:18,15.08839081,0.0001774,53.2183,295.0026,104.0778,256.0412,0.0001562,2.199e-05,0.0,0 STARLINK-4526,1 53438U 22097BC  23320.16063470  .00002199  00000-0  15620-3 0  9998,2 53438  53.2183 295.0026 0001774 104.0778 256.0412 15.08839081 71301,6917.883,95.438,540.975,538.521,0.0
53438.0,STARLINK-4526,PAYLOAD,2023-11-16 22:55:56,15.08839865,0.0001745,53.2181,291.4345,99.8972,260.2217,0.00014222,1.976e-05,0.0,0 STARLINK-4526,1 53438U 22097BC  23320.95551605  .00001976  00000-0  14222-3 0  9996,2 53438  53.2181 291.4345 0001745  99.8972 260.2217 15.08839865 71421,6917.881,95.438,540.953,538.539,0.0
53438.0,STARLINK-4526,PAYLOAD,2023-11-17 06:52:52,15.08840156,0.000161,53.2174,289.949,85.9294,274.1882,0.00013277,1.826e-05,0.0,0 STARLINK-4526,1 53438U 22097BC  23321.28671684  .00001826  00000-0  13277-3 0  9996,2 53438  53.2174 289.9490 0001610  85.9294 274.1882 15.08840156 71472,6917.88,95.438,540.859,538.631,0.0
53438.0,STARLINK-4526,PAYLOAD,2023-11-17 14:49:48,15.08837478,0.0001603,53.2172,288.4622,86.443,273.6746,6.5646e-05,7.57e-06,0.0,0 STARLINK-4526,1 53438U 22097BC  23321.61791839  .00000757  00000-0  65646-4 0  9998,2 53438  53.2172 288.4622 0001603  86.4430 273.6746 15.08837478 71523,6917.888,95.438,540.862,538.644,0.0
53438.0,STARLINK-4526,PAYLOAD,2023-11-18 03:32:53,15.08840065,0.0001634,53.2176,286.084,88.6016,271.5164,8.6791e-05,1.094e-05,0.0,0 STARLINK-4526,1 53438U 22097BC  23322.14783775  .00001094  00000-0  86791-4 0  9996,2 53438  53.2176 286.0840 0001634  88.6016 271.5164 15.08840065 71113,6917.88,95.438,540.876,538.615,0.0
53438.0,STARLINK-4526,PAYLOAD,2023-11-18 06:43:39,15.08843861,0.000172,53.2178,285.4902,93.4602,266.6587,0.00014034,1.946e-05,0.0,0 STARLINK-4526,1 53438U 22097BC  23322.28031601  .00001946  00000-0  14034-3 0  9991,2 53438  53.2178 285.4902 0001720  93.4602 266.6587 15.08843861 71625,6917.869,95.437,540.923,538.544,0.0
53438.0,STARLINK-4526,PAYLOAD,2023-11-18 14:40:35,15.08840616,0.0001752,53.2174,284.0032,90.0234,270.0959,7.9529e-05,9.78e-06,0.0,0 STARLINK-4526,1 53438U 22097BC  23322.61151781  .00000978  00000-0  79529-4 0  9995,2 53438  53.2174 284.0032 0001752  90.0234 270.0959 15.08840616 71671,6917.879,95.438,540.956,538.531,0.0
53438.0,STARLINK-4526,PAYLOAD,2023-11-19 04:59:03,15.08843759,0.0001681,53.2187,281.3262,89.7174,270.4011,0.00010696,1.415e-05,0.0,0 STARLINK-4526,1 53438U 22097BC  23323.20767802  .00001415  00000-0  10696-3 0  9994,2 53438  53.2187 281.3262 0001681  89.7174 270.4011 15.08843759 71279,6917.869,95.437,540.897,538.571,0.0
53438.0,STARLINK-4526,PAYLOAD,2023-11-19 14:31:22,15.08832097,0.0001922,53.2192,279.5405,84.8731,275.2481,0.00023078,3.386e-05,0.0,0 STARLINK-4526,1 53438U 22097BC  23323.60512423  .00003386  00000-0  23078-3 0  9992,2 53438  53.2192 279.5405 0001922  84.8731 275.2481 15.08832097 71824,6917.905,95.438,541.099,538.44,0.0
53438.0,STARLINK-4526,PAYLOAD,2023-11-19 20:52:55,15.08838822,0.0001737,53.2191,278.3518,88.8059,271.3133,6.6307e-05,7.67e-06,0.0,0 STARLINK-4526,1 53438U 22097BC  23323.87008123  .00000767  00000-0  66307-4 0  9991,2 53438  53.2191 278.3518 0001737  88.8059 271.3133 15.08838822 71863,6917.884,95.438,540.951,538.547,0.0
